[
  {
    "OBJECT_NAME": "STARLINK-11575 [DTC]",
    "OBJECT_ID": "25057B",
    "EPOCH": "2025-11-11T05:05:40.398432",
    "MEAN_MOTION": 15.70951985,
    "ECCENTRICITY": 0.000213,
    "INCLINATION": 43.0012,
    "RA_OF_ASC_NODE": 258.726,
    "ARG_OF_PERICENTER": 264.0587,
    "MEAN_ANOMALY": 96.0038,
    "EPHEMERIS_TYPE": 0,
    "CLASSIFICATION_TYPE": "U",
    "NORAD_CAT_ID": 63308,
    "ELEMENT_SET_NO": 999,
    "REV_AT_EPOCH": 3854,
    "BSTAR": 0.0014127999999999999,
    "MEAN_MOTION_DOT": 0.00185822,
    "MEAN_MOTION_DDOT": 0.0,
    "TLE_LINE1": "1 63308U 25057B   25315.21227313  .00185822  00000+0  14128-2 0  9999",
    "TLE_LINE2": "2 63308  43.0012 258.7260 0002130 264.0587  96.0038 15.70951985 38546",
    "COMMENT": "Grouped by shell and plane from TLE"
  },
  {
    "OBJECT_NAME": "STARLINK-11585 [DTC]",
    "OBJECT_ID": "25057C",
    "EPOCH": "2025-11-11T04:42:45.171360",
    "MEAN_MOTION": 15.70933193,
    "ECCENTRICITY": 0.0001715,
    "INCLINATION": 42.9981,
    "RA_OF_ASC_NODE": 258.5966,
    "ARG_OF_PERICENTER": 326.6749,
    "MEAN_ANOMALY": 33.401,
    "EPHEMERIS_TYPE": 0,
    "CLASSIFICATION_TYPE": "U",
    "NORAD_CAT_ID": 63309,
    "ELEMENT_SET_NO": 999,
    "REV_AT_EPOCH": 3857,
    "BSTAR": 0.0029971999999999998,
    "MEAN_MOTION_DOT": 0.00405063,
    "MEAN_MOTION_DDOT": 0.0,
    "TLE_LINE1": "1 63309U 25057C   25315.19635615  .00405063  00000+0  29972-2 0  9990",
    "TLE_LINE2": "2 63309  42.9981 258.5966 0001715 326.6749  33.4010 15.70933193 38573",
    "COMMENT": "Grouped by shell and plane from TLE"
  },
  {
    "OBJECT_NAME": "STARLINK-11587 [DTC]",
    "OBJECT_ID": "25057D",
    "EPOCH": "2025-11-11T05:36:15.823008",
    "MEAN_MOTION": 15.70946262,
    "ECCENTRICITY": 0.000207,
    "INCLINATION": 43.0011,
    "RA_OF_ASC_NODE": 258.8931,
    "ARG_OF_PERICENTER": 268.5668,
    "MEAN_ANOMALY": 91.4963,
    "EPHEMERIS_TYPE": 0,
    "CLASSIFICATION_TYPE": "U",
    "NORAD_CAT_ID": 63310,
    "ELEMENT_SET_NO": 999,
    "REV_AT_EPOCH": 3854,
    "BSTAR": 0.0021987,
    "MEAN_MOTION_DOT": 0.00293167,
    "MEAN_MOTION_DDOT": 0.0,
    "TLE_LINE1": "1 63310U 25057D   25315.23351647  .00293167  00000+0  21987-2 0  9995",
    "TLE_LINE2": "2 63310  43.0011 258.8931 0002070 268.5668  91.4963 15.70946262 38544",
    "COMMENT": "Grouped by shell and plane from TLE"
  },
  {
    "OBJECT_NAME": "STARLINK-11589 [DTC]",
    "OBJECT_ID": "25057E",
    "EPOCH": "2025-11-11T05:43:54.047136",
    "MEAN_MOTION": 15.70904266,
    "ECCENTRICITY": 0.0002057,
    "INCLINATION": 42.9996,
    "RA_OF_ASC_NODE": 258.9378,
    "ARG_OF_PERICENTER": 248.2961,
    "MEAN_ANOMALY": 111.7687,
    "EPHEMERIS_TYPE": 0,
    "CLASSIFICATION_TYPE": "U",
    "NORAD_CAT_ID": 63311,
    "ELEMENT_SET_NO": 999,
    "REV_AT_EPOCH": 3854,
    "BSTAR": 0.0010219,
    "MEAN_MOTION_DOT": 0.00133162,
    "MEAN_MOTION_DDOT": 0.0,
    "TLE_LINE1": "1 63311U 25057E   25315.23881999  .00133162  00000+0  10219-2 0  9998",
    "TLE_LINE2": "2 63311  42.9996 258.9378 0002057 248.2961 111.7687 15.70904266 38544",
    "COMMENT": "Grouped by shell and plane from TLE"
  },
  {
    "OBJECT_NAME": "STARLINK-11650 [DTC]",
    "OBJECT_ID": "25057F",
    "EPOCH": "2025-11-11T05:22:17.271264",
    "MEAN_MOTION": 15.70927681,
    "ECCENTRICITY": 0.0001605,
    "INCLINATION": 42.9992,
    "RA_OF_ASC_NODE": 258.8154,
    "ARG_OF_PERICENTER": 304.7847,
    "MEAN_ANOMALY": 55.287,
    "EPHEMERIS_TYPE": 0,
    "CLASSIFICATION_TYPE": "U",
    "NORAD_CAT_ID": 63312,
    "ELEMENT_SET_NO": 999,
    "REV_AT_EPOCH": 3857,
    "BSTAR": 0.0023254,
    "MEAN_MOTION_DOT": 0.00310487,
    "MEAN_MOTION_DDOT": 0.0,
    "TLE_LINE1": "1 63312U 25057F   25315.22381101  .00310487  00000+0  23254-2 0  9998",
    "TLE_LINE2": "2 63312  42.9992 258.8154 0001605 304.7847  55.2870 15.70927681 38576",
    "COMMENT": "Grouped by shell and plane from TLE"
  },
  {
    "OBJECT_NAME": "STARLINK-11648 [DTC]",
    "OBJECT_ID": "25057G",
    "EPOCH": "2025-11-11T05:20:58.364736",
    "MEAN_MOTION": 15.70933978,
    "ECCENTRICITY": 0.0001496,
    "INCLINATION": 43.0007,
    "RA_OF_ASC_NODE": 258.808,
    "ARG_OF_PERICENTER": 270.8594,
    "MEAN_ANOMALY": 89.2102,
    "EPHEMERIS_TYPE": 0,
    "CLASSIFICATION_TYPE": "U",
    "NORAD_CAT_ID": 63313,
    "ELEMENT_SET_NO": 999,
    "REV_AT_EPOCH": 3854,
    "BSTAR": 0.0019784,
    "MEAN_MOTION_DOT": 0.00262627,
    "MEAN_MOTION_DDOT": 0.0,
    "TLE_LINE1": "1 63313U 25057G   25315.22289774  .00262627  00000+0  19784-2 0  9997",
    "TLE_LINE2": "2 63313  43.0007 258.8080 0001496 270.8594  89.2102 15.70933978 38542",
    "COMMENT": "Grouped by shell and plane from TLE"
  },
  {
    "OBJECT_NAME": "STARLINK-11640 [DTC]",
    "OBJECT_ID": "25057H",
    "EPOCH": "2025-11-11T05:13:19.962624",
    "MEAN_MOTION": 15.70931344,
    "ECCENTRICITY": 0.0001183,
    "INCLINATION": 42.9993,
    "RA_OF_ASC_NODE": 258.7641,
    "ARG_OF_PERICENTER": 279.5886,
    "MEAN_ANOMALY": 80.4848,
    "EPHEMERIS_TYPE": 0,
    "CLASSIFICATION_TYPE": "U",
    "NORAD_CAT_ID": 63314,
    "ELEMENT_SET_NO": 999,
    "REV_AT_EPOCH": 3854,
    "BSTAR": 0.0029432000000000004,
    "MEAN_MOTION_DOT": 0.00397364,
    "MEAN_MOTION_DDOT": 0.0,
    "TLE_LINE1": "1 63314U 25057H   25315.21759216  .00397364  00000+0  29432-2 0  9998",
    "TLE_LINE2": "2 63314  42.9993 258.7641 0001183 279.5886  80.4848 15.70931344 38545",
    "COMMENT": "Grouped by shell and plane from TLE"
  },
  {
    "OBJECT_NAME": "STARLINK-11652 [DTC]",
    "OBJECT_ID": "25057J",
    "EPOCH": "2025-11-11T04:58:01.558272",
    "MEAN_MOTION": 15.70954201,
    "ECCENTRICITY": 0.000281,
    "INCLINATION": 42.9991,
    "RA_OF_ASC_NODE": 258.6787,
    "ARG_OF_PERICENTER": 274.214,
    "MEAN_ANOMALY": 85.8406,
    "EPHEMERIS_TYPE": 0,
    "CLASSIFICATION_TYPE": "U",
    "NORAD_CAT_ID": 63315,
    "ELEMENT_SET_NO": 999,
    "REV_AT_EPOCH": 3857,
    "BSTAR": 0.0016380000000000001,
    "MEAN_MOTION_DOT": 0.00216336,
    "MEAN_MOTION_DDOT": 0.0,
    "TLE_LINE1": "1 63315U 25057J   25315.20696248  .00216336  00000+0  16380-2 0  9990",
    "TLE_LINE2": "2 63315  42.9991 258.6787 0002810 274.2140  85.8406 15.70954201 38576",
    "COMMENT": "Grouped by shell and plane from TLE"
  },
  {
    "OBJECT_NAME": "STARLINK-11645 [DTC]",
    "OBJECT_ID": "25057K",
    "EPOCH": "2025-11-11T08:00:03.000384",
    "MEAN_MOTION": 15.70846125,
    "ECCENTRICITY": 0.0001596,
    "INCLINATION": 42.9998,
    "RA_OF_ASC_NODE": 258.2169,
    "ARG_OF_PERICENTER": 273.877,
    "MEAN_ANOMALY": 321.6083,
    "EPHEMERIS_TYPE": 0,
    "CLASSIFICATION_TYPE": "U",
    "NORAD_CAT_ID": 63316,
    "ELEMENT_SET_NO": 999,
    "REV_AT_EPOCH": 595,
    "BSTAR": 0.0,
    "MEAN_MOTION_DOT": -0.00070317,
    "MEAN_MOTION_DDOT": 0.0,
    "TLE_LINE1": "1 63316U 25057K   25315.33336806 -.00070317  00000+0 -54898-3 0  9992",
    "TLE_LINE2": "2 63316  42.9998 258.2169 0001596 273.8770 321.6083 15.70846125  5951",
    "COMMENT": "Grouped by shell and plane from TLE"
  },
  {
    "OBJECT_NAME": "STARLINK-11633 [DTC]",
    "OBJECT_ID": "25057L",
    "EPOCH": "2025-11-11T05:51:21.773664",
    "MEAN_MOTION": 15.70911908,
    "ECCENTRICITY": 0.0001595,
    "INCLINATION": 42.9998,
    "RA_OF_ASC_NODE": 258.0816,
    "ARG_OF_PERICENTER": 251.2148,
    "MEAN_ANOMALY": 108.8547,
    "EPHEMERIS_TYPE": 0,
    "CLASSIFICATION_TYPE": "U",
    "NORAD_CAT_ID": 63317,
    "ELEMENT_SET_NO": 999,
    "REV_AT_EPOCH": 3855,
    "BSTAR": 0.0017204,
    "MEAN_MOTION_DOT": 0.00227121,
    "MEAN_MOTION_DDOT": 0.0,
    "TLE_LINE1": "1 63317U 25057L   25315.24400201  .00227121  00000+0  17204-2 0  9998",
    "TLE_LINE2": "2 63317  42.9998 258.0816 0001595 251.2148 108.8547 15.70911908 38551",
    "COMMENT": "Grouped by shell and plane from TLE"
  },
  {
    "OBJECT_NAME": "STARLINK-11593 [DTC]",
    "OBJECT_ID": "25057M",
    "EPOCH": "2025-11-11T04:35:05.552736",
    "MEAN_MOTION": 15.70926658,
    "ECCENTRICITY": 0.0001965,
    "INCLINATION": 42.9994,
    "RA_OF_ASC_NODE": 258.5484,
    "ARG_OF_PERICENTER": 263.0798,
    "MEAN_ANOMALY": 96.9846,
    "EPHEMERIS_TYPE": 0,
    "CLASSIFICATION_TYPE": "U",
    "NORAD_CAT_ID": 63318,
    "ELEMENT_SET_NO": 999,
    "REV_AT_EPOCH": 3857,
    "BSTAR": 0.0016703000000000002,
    "MEAN_MOTION_DOT": 0.00220454,
    "MEAN_MOTION_DDOT": 0.0,
    "TLE_LINE1": "1 63318U 25057M   25315.19103649  .00220454  00000+0  16703-2 0  9994",
    "TLE_LINE2": "2 63318  42.9994 258.5484 0001965 263.0798  96.9846 15.70926658 38576",
    "COMMENT": "Grouped by shell and plane from TLE"
  },
  {
    "OBJECT_NAME": "STARLINK-11588 [DTC]",
    "OBJECT_ID": "25057N",
    "EPOCH": "2025-11-11T04:50:23.664192",
    "MEAN_MOTION": 15.70902028,
    "ECCENTRICITY": 0.0001334,
    "INCLINATION": 42.9984,
    "RA_OF_ASC_NODE": 258.633,
    "ARG_OF_PERICENTER": 294.4187,
    "MEAN_ANOMALY": 65.6541,
    "EPHEMERIS_TYPE": 0,
    "CLASSIFICATION_TYPE": "U",
    "NORAD_CAT_ID": 63319,
    "ELEMENT_SET_NO": 999,
    "REV_AT_EPOCH": 3854,
    "BSTAR": 0.0023104,
    "MEAN_MOTION_DOT": 0.00308066,
    "MEAN_MOTION_DDOT": 0.0,
    "TLE_LINE1": "1 63319U 25057N   25315.20166278  .00308066  00000+0  23104-2 0  9993",
    "TLE_LINE2": "2 63319  42.9984 258.6330 0001334 294.4187  65.6541 15.70902028 38544",
    "COMMENT": "Grouped by shell and plane from TLE"
  }
]